FLOCK 4H-31             
1 66734U 25276BW  26068.17539094  .00008555  00000+0  41894-3 0  9999
2 66734  97.4236 143.3458 0004026  29.5854 330.5607 15.18403847 15238
LILIUM-3                
1 66770U 25276DJ  26068.70479330  .00003348  00000+0  16353-3 0  9991
2 66770  97.4313 144.1145 0001123 186.7966 173.3253 15.18939749 15326
